KUIPER-00606            
1 69289U 26118Y   26160.06719650  .00018911  00000+0  51348-3 0  9994
2 69289  51.8695  92.5141 0004646 121.2720 238.8722 15.37608089  2738
KUIPER-00607            
1 69290U 26118Z   26160.06930079  .00019810  00000+0  54268-3 0  9999
2 69290  51.8682  92.5288 0006299 128.5987 231.5565 15.37293604  2737
KUIPER-00608            
1 69291U 26118AA  26160.07584660 -.00119113  00000+0 -33983-2 0  9991
2 69291  51.8603  92.5705 0009562 148.7191 211.4366 15.35853690  2733
KUIPER-00610            
1 69292U 26118AB  26160.06371453  .00020614  00000+0  54891-3 0  9992
2 69292  51.8719  92.4861 0002900 106.1136 254.0170 15.38158064  2732
KUIPER-00613            
1 69293U 26118AC  26160.07857628  .00022757  00000+0  66127-3 0  9992
2 69293  51.8629  92.5880 0010233 158.2773 201.8648 15.35330714  2739
KUIPER-00618            
1 69294U 26118AD  26160.06116156 -.00003572  00000+0 -82498-4 0  9992
2 69294  51.8717  92.4684 0002065  67.6009 292.5197 15.38439325  2735
KUIPER-00620            
1 69295U 26118AE  26160.06315100  .00020429  00000+0  54273-3 0  9990
2 69295  51.8714  92.4838 0003026  93.5304 266.6029 15.38235333  2737
STARLINK-37501          
1 69296U 26119A   26160.16670139 -.00103765  00000+0 -56920-3 0  9997
2 69296  97.2837 185.5445 0001054  84.2238 261.3027 15.79960925  2601
STARLINK-37496          
1 69297U 26119B   26160.16670139 -.00047502  00000+0 -25874-3 0  9998
2 69297  97.2841 185.5438 0000864 103.6083 239.2244 15.79939953  2603
STARLINK-37519          
1 69298U 26119C   26160.16670139 -.00151686  00000+0 -80311-3 0  9995
2 69298  97.2834 185.5516 0001421 100.0237 261.0560 15.80866071  2601
STARLINK-37455          
1 69299U 26119D   26160.16670139 -.00089713  00000+0 -49125-3 0  9995
2 69299  97.2837 185.5486 0001447  77.9585 274.4817 15.79958653  2606
STARLINK-37456          
1 69300U 26119E   26160.16670139 -.00121202  00000+0 -63950-3 0  9990
2 69300  97.2835 185.5540 0000930 122.6429 242.9300 15.80862458  2605
STARLINK-37630          
1 69301U 26119F   26160.16670139 -.00014892  00000+0 -77161-4 0  9997
2 69301  97.2835 185.5551 0000686  83.0777 285.0956 15.80810484  2766
STARLINK-37804          
1 69302U 26119G   26160.16670139 -.00029860  00000+0 -15573-3 0  9997
2 69302  97.2834 185.5550 0000886 111.4726 258.4073 15.80810533  2766
STARLINK-37730          
1 69303U 26119H   26160.16670139 -.00128901  00000+0 -68107-3 0  9995
2 69303  97.2832 185.5585 0000826 117.7177 260.5894 15.80852670  2769
STARLINK-37731          
1 69304U 26119J   26160.16670139 -.00073887  00000+0 -38838-3 0  9996
2 69304  97.2831 185.5588 0001308  90.3283 288.7673 15.80809504  2767
STARLINK-37734          
1 69305U 26119K   26160.16670139 -.00179976  00000+0 -95565-3 0  9993
2 69305  97.2831 185.5607 0000701  87.5420 296.7214 15.80878824  2768
STARLINK-37701          
1 69306U 26119L   26160.16670139 -.00051476  00000+0 -26942-3 0  9991
2 69306  97.2831 185.5630 0000652  65.1831 320.6283 15.80830430  2762
STARLINK-37732          
1 69307U 26119M   26160.16670139 -.00081106  00000+0 -42667-3 0  9997
2 69307  97.2831 185.5631 0001267  84.5264 303.6900 15.80813836  2760
STARLINK-37689          
1 69308U 26119N   26160.16670139 -.00182716  00000+0 -97029-3 0  9999
2 69308  97.2832 185.5652 0000843  88.9662 305.9438 15.80883445  2768
STARLINK-37619          
1 69309U 26119P   26160.16670139 -.00140910  00000+0 -74517-3 0  9997
2 69309  97.2830 185.5668 0001452 100.2675 297.6346 15.80863704  2764
STARLINK-37794          
1 69310U 26119Q   26160.16670139 -.00065964  00000+0 -34596-3 0  9997
2 69310  97.2834 185.5727 0000654  80.1072 330.4861 15.80835003  2765
STARLINK-37795          
1 69311U 26119R   26160.16670139 -.00131676  00000+0 -69557-3 0  9997
2 69311  97.2832 185.5732 0001124  91.2580 321.4081 15.80864570  2765
STARLINK-37790          
1 69312U 26119S   26160.16670139  .00009826  00000+0  51993-4 0  9993
2 69312  97.2835 185.5768 0001009  82.4658 335.5584 15.80810445  2764
STARLINK-37676          
1 69313U 26119T   26160.16670139 -.00042988  00000+0 -22450-3 0  9997
2 69313  97.2835 185.5805 0000666  73.0515 356.4564 15.80846007  2766
STARLINK-37617          
1 69314U 26119U   26160.16670139 -.00135084  00000+0 -71354-3 0  9995
2 69314  97.2833 185.5820 0001400  97.8833 336.5864 15.80873673  2767
STARLINK-37627          
1 69315U 26119V   26160.16670139 -.00158253  00000+0 -83775-3 0  9999
2 69315  97.2833 185.5830 0000548  85.5651 350.6823 15.80889431  2764
STARLINK-37738          
1 69316U 26119W   26160.16670139 -.00090896  00000+0 -47890-3 0  9996
2 69316  97.2828 185.5774 0000844  79.2035 344.3543 15.80810097  2762
STARLINK-37799          
1 69317U 26119X   26160.16670139 -.00117100  00000+0 -61760-3 0  9997
2 69317  97.2831 185.5817 0001113  96.4747 335.7681 15.80859733  2718
STARLINK-37802          
1 69318U 26119Y   26160.16670139 -.00159274  00000+0 -84352-3 0  9998
2 69318  97.2830 185.5864 0000914  98.2992 345.4240 15.80881540  2765
