OBJECT_NAME,OBJECT_ID,EPOCH,MEAN_MOTION,ECCENTRICITY,INCLINATION,RA_OF_ASC_NODE,ARG_OF_PERICENTER,MEAN_ANOMALY,EPHEMERIS_TYPE,CLASSIFICATION_TYPE,NORAD_CAT_ID,ELEMENT_SET_NO,REV_AT_EPOCH,BSTAR,MEAN_MOTION_DOT,MEAN_MOTION_DDOT
KUIPER-00606,2026-118Y,2026-06-09T01:36:45.777600,15.37608089,.0004646,51.8695,92.5141,121.2720,238.8722,0,U,69289,999,273,.51348E-3,.18911E-3,0
KUIPER-00607,2026-118Z,2026-06-09T01:39:47.588256,15.37293604,.0006299,51.8682,92.5288,128.5987,231.5565,0,U,69290,999,273,.54268E-3,.1981E-3,0
KUIPER-00608,2026-118AA,2026-06-09T01:49:13.146240,15.35853690,.0009562,51.8603,92.5705,148.7191,211.4366,0,U,69291,999,273,-.33983E-2,-.119113E-2,0
KUIPER-00610,2026-118AB,2026-06-09T01:31:44.935392,15.38158064,.00029,51.8719,92.4861,106.1136,254.0170,0,U,69292,999,273,.54891E-3,.20614E-3,0
KUIPER-00613,2026-118AC,2026-06-09T01:53:08.990592,15.35330714,.0010233,51.8629,92.5880,158.2773,201.8648,0,U,69293,999,273,.66127E-3,.22757E-3,0
KUIPER-00618,2026-118AD,2026-06-09T01:28:04.358784,15.38439325,.0002065,51.8717,92.4684,67.6009,292.5197,0,U,69294,999,273,-.82498E-4,-.3572E-4,0
KUIPER-00620,2026-118AE,2026-06-09T01:30:56.246400,15.38235333,.0003026,51.8714,92.4838,93.5304,266.6029,0,U,69295,999,273,.54273E-3,.20429E-3,0
STARLINK-37501,2026-119A,2026-06-09T04:00:03.000096,15.79960925,.0001054,97.2837,185.5445,84.2238,261.3027,0,U,69296,999,260,-.5692E-3,-.103765E-2,0
STARLINK-37496,2026-119B,2026-06-09T04:00:03.000096,15.79939953,.0000864,97.2841,185.5438,103.6083,239.2244,0,U,69297,999,260,-.25874E-3,-.47502E-3,0
STARLINK-37519,2026-119C,2026-06-09T04:00:03.000096,15.80866071,.0001421,97.2834,185.5516,100.0237,261.0560,0,U,69298,999,260,-.80311E-3,-.151686E-2,0
STARLINK-37455,2026-119D,2026-06-09T04:00:03.000096,15.79958653,.0001447,97.2837,185.5486,77.9585,274.4817,0,U,69299,999,260,-.49125E-3,-.89713E-3,0
STARLINK-37456,2026-119E,2026-06-09T04:00:03.000096,15.80862458,.000093,97.2835,185.5540,122.6429,242.9300,0,U,69300,999,260,-.6395E-3,-.121202E-2,0
STARLINK-37630,2026-119F,2026-06-09T04:00:03.000096,15.80810484,.0000686,97.2835,185.5551,83.0777,285.0956,0,U,69301,999,276,-.77161E-4,-.14892E-3,0
STARLINK-37804,2026-119G,2026-06-09T04:00:03.000096,15.80810533,.0000886,97.2834,185.5550,111.4726,258.4073,0,U,69302,999,276,-.15573E-3,-.2986E-3,0
STARLINK-37730,2026-119H,2026-06-09T04:00:03.000096,15.80852670,.0000826,97.2832,185.5585,117.7177,260.5894,0,U,69303,999,276,-.68107E-3,-.128901E-2,0
STARLINK-37731,2026-119J,2026-06-09T04:00:03.000096,15.80809504,.0001308,97.2831,185.5588,90.3283,288.7673,0,U,69304,999,276,-.38838E-3,-.73887E-3,0
STARLINK-37734,2026-119K,2026-06-09T04:00:03.000096,15.80878824,.0000701,97.2831,185.5607,87.5420,296.7214,0,U,69305,999,276,-.95565E-3,-.179976E-2,0
STARLINK-37701,2026-119L,2026-06-09T04:00:03.000096,15.80830430,.0000652,97.2831,185.5630,65.1831,320.6283,0,U,69306,999,276,-.26942E-3,-.51476E-3,0
STARLINK-37732,2026-119M,2026-06-09T04:00:03.000096,15.80813836,.0001267,97.2831,185.5631,84.5264,303.6900,0,U,69307,999,276,-.42667E-3,-.81106E-3,0
STARLINK-37689,2026-119N,2026-06-09T04:00:03.000096,15.80883445,.0000843,97.2832,185.5652,88.9662,305.9438,0,U,69308,999,276,-.97029E-3,-.182716E-2,0
STARLINK-37619,2026-119P,2026-06-09T04:00:03.000096,15.80863704,.0001452,97.2830,185.5668,100.2675,297.6346,0,U,69309,999,276,-.74517E-3,-.14091E-2,0
STARLINK-37794,2026-119Q,2026-06-09T04:00:03.000096,15.80835003,.0000654,97.2834,185.5727,80.1072,330.4861,0,U,69310,999,276,-.34596E-3,-.65964E-3,0
STARLINK-37795,2026-119R,2026-06-09T04:00:03.000096,15.80864570,.0001124,97.2832,185.5732,91.2580,321.4081,0,U,69311,999,276,-.69557E-3,-.131676E-2,0
STARLINK-37790,2026-119S,2026-06-09T04:00:03.000096,15.80810445,.0001009,97.2835,185.5768,82.4658,335.5584,0,U,69312,999,276,.51993E-4,.9826E-4,0
STARLINK-37676,2026-119T,2026-06-09T04:00:03.000096,15.80846007,.0000666,97.2835,185.5805,73.0515,356.4564,0,U,69313,999,276,-.2245E-3,-.42988E-3,0
STARLINK-37617,2026-119U,2026-06-09T04:00:03.000096,15.80873673,.00014,97.2833,185.5820,97.8833,336.5864,0,U,69314,999,276,-.71354E-3,-.135084E-2,0
STARLINK-37627,2026-119V,2026-06-09T04:00:03.000096,15.80889431,.0000548,97.2833,185.5830,85.5651,350.6823,0,U,69315,999,276,-.83775E-3,-.158253E-2,0
STARLINK-37738,2026-119W,2026-06-09T04:00:03.000096,15.80810097,.0000844,97.2828,185.5774,79.2035,344.3543,0,U,69316,999,276,-.4789E-3,-.90896E-3,0
STARLINK-37799,2026-119X,2026-06-09T04:00:03.000096,15.80859733,.0001113,97.2831,185.5817,96.4747,335.7681,0,U,69317,999,271,-.6176E-3,-.1171E-2,0
STARLINK-37802,2026-119Y,2026-06-09T04:00:03.000096,15.80881540,.0000914,97.2830,185.5864,98.2992,345.4240,0,U,69318,999,276,-.84352E-3,-.159274E-2,0
